OTTER                   
1 62623U 25009Q   26068.72300813  .00012198  00000+0  45151-3 0  9990
2 62623  97.4065 151.3812 0003573 310.7710  49.3219 15.27809545 63722
STARLINK-32926          
1 63025U 25032W   26068.82148411  .00039474  00000+0  14344-2 0  9993
2 63025  43.0004 335.0020 0001834 348.5664  11.5146 15.27624607 60648
